{
  "links" : {
    "next" : "https://api.nasa.gov/neo/rest/v1/feed?start_date=2004-02-16&end_date=2004-02-16&detailed=true&api_key=t0TVs3DtDT2H8Oy2Zy8m2eVrNsAVKAexjcZXUckd",
    "prev" : "https://api.nasa.gov/neo/rest/v1/feed?start_date=2004-02-14&end_date=2004-02-14&detailed=true&api_key=t0TVs3DtDT2H8Oy2Zy8m2eVrNsAVKAexjcZXUckd",
    "self" : "https://api.nasa.gov/neo/rest/v1/feed?start_date=2004-02-15&end_date=2004-02-15&detailed=true&api_key=t0TVs3DtDT2H8Oy2Zy8m2eVrNsAVKAexjcZXUckd"
  },
  "element_count" : 7,
  "near_earth_objects" : {
    "2004-02-15" : [ {
      "links" : {
        "self" : "https://api.nasa.gov/neo/rest/v1/neo/3176186?api_key=t0TVs3DtDT2H8Oy2Zy8m2eVrNsAVKAexjcZXUckd"
      },
      "neo_reference_id" : "3176186",
      "name" : "(2004 DM44)",
      "nasa_jpl_url" : "http://ssd.jpl.nasa.gov/sbdb.cgi?sstr=3176186",
      "absolute_magnitude_h" : 20.7,
      "estimated_diameter" : {
        "kilometers" : {
          "estimated_diameter_min" : 0.1925550782,
          "estimated_diameter_max" : 0.4305662442
        },
        "meters" : {
          "estimated_diameter_min" : 192.5550781879,
          "estimated_diameter_max" : 430.566244241
        },
        "miles" : {
          "estimated_diameter_min" : 0.1196481415,
          "estimated_diameter_max" : 0.2675413778
        },
        "feet" : {
          "estimated_diameter_min" : 631.7424027221,
          "estimated_diameter_max" : 1412.6189567557
        }
      },
      "is_potentially_hazardous_asteroid" : true,
      "close_approach_data" : [ {
        "close_approach_date" : "2004-02-15",
        "epoch_date_close_approach" : 1076832000000,
        "relative_velocity" : {
          "kilometers_per_second" : "14.9179345229",
          "kilometers_per_hour" : "53704.5642823633",
          "miles_per_hour" : "33369.9277342274"
        },
        "miss_distance" : {
          "astronomical" : "0.1451137543",
          "lunar" : "56.4492492676",
          "kilometers" : "21708708",
          "miles" : "13489166"
        },
        "orbiting_body" : "Earth"
      } ],
      "orbital_data" : {
        "orbit_id" : "22",
        "orbit_determination_date" : "2017-04-06 09:13:08",
        "orbit_uncertainty" : "0",
        "minimum_orbit_intersection" : ".0416774",
        "jupiter_tisserand_invariant" : "3.055",
        "epoch_osculation" : "2458000.5",
        "eccentricity" : ".7111307253708218",
        "semi_major_axis" : "2.476428128546402",
        "inclination" : "10.53948121292015",
        "ascending_node_longitude" : "350.8074717700928",
        "orbital_period" : "1423.432964958321",
        "perihelion_distance" : ".7153639971644925",
        "perihelion_argument" : "95.61860066623292",
        "aphelion_distance" : "4.237492259928312",
        "perihelion_time" : "2458705.737133428876",
        "mean_anomaly" : "181.6386902056683",
        "mean_motion" : ".2529096970931406",
        "equinox" : "J2000"
      }
    }, {
      "links" : {
        "self" : "https://api.nasa.gov/neo/rest/v1/neo/3753079?api_key=t0TVs3DtDT2H8Oy2Zy8m2eVrNsAVKAexjcZXUckd"
      },
      "neo_reference_id" : "3753079",
      "name" : "(2016 JH18)",
      "nasa_jpl_url" : "http://ssd.jpl.nasa.gov/sbdb.cgi?sstr=3753079",
      "absolute_magnitude_h" : 26.1,
      "estimated_diameter" : {
        "kilometers" : {
          "estimated_diameter_min" : 0.0160160338,
          "estimated_diameter_max" : 0.0358129403
        },
        "meters" : {
          "estimated_diameter_min" : 16.0160337979,
          "estimated_diameter_max" : 35.8129403019
        },
        "miles" : {
          "estimated_diameter_min" : 0.0099518989,
          "estimated_diameter_max" : 0.0222531225
        },
        "feet" : {
          "estimated_diameter_min" : 52.5460443254,
          "estimated_diameter_max" : 117.4965270602
        }
      },
      "is_potentially_hazardous_asteroid" : false,
      "close_approach_data" : [ {
        "close_approach_date" : "2004-02-15",
        "epoch_date_close_approach" : 1076832000000,
        "relative_velocity" : {
          "kilometers_per_second" : "16.5433767769",
          "kilometers_per_hour" : "59556.1563967694",
          "miles_per_hour" : "37005.8795122038"
        },
        "miss_distance" : {
          "astronomical" : "0.3118880124",
          "lunar" : "121.324432373",
          "kilometers" : "46657784",
          "miles" : "28991802"
        },
        "orbiting_body" : "Earth"
      } ],
      "orbital_data" : {
        "orbit_id" : "7",
        "orbit_determination_date" : "2017-04-06 08:25:59",
        "orbit_uncertainty" : "7",
        "minimum_orbit_intersection" : ".019812",
        "jupiter_tisserand_invariant" : "6.604",
        "epoch_osculation" : "2458000.5",
        "eccentricity" : ".2589775393997538",
        "semi_major_axis" : ".8963846842814953",
        "inclination" : "4.333445913231539",
        "ascending_node_longitude" : "224.9175107458287",
        "orbital_period" : "309.9845639489179",
        "perihelion_distance" : ".6642411843906485",
        "perihelion_argument" : "147.6262901139639",
        "aphelion_distance" : "1.128528184172342",
        "perihelion_time" : "2457933.919433873401",
        "mean_anomaly" : "77.32321732486442",
        "mean_motion" : "1.161348150417336",
        "equinox" : "J2000"
      }
    }, {
      "links" : {
        "self" : "https://api.nasa.gov/neo/rest/v1/neo/3754384?api_key=t0TVs3DtDT2H8Oy2Zy8m2eVrNsAVKAexjcZXUckd"
      },
      "neo_reference_id" : "3754384",
      "name" : "(2016 ND1)",
      "nasa_jpl_url" : "http://ssd.jpl.nasa.gov/sbdb.cgi?sstr=3754384",
      "absolute_magnitude_h" : 25.3,
      "estimated_diameter" : {
        "kilometers" : {
          "estimated_diameter_min" : 0.0231502122,
          "estimated_diameter_max" : 0.0517654482
        },
        "meters" : {
          "estimated_diameter_min" : 23.150212221,
          "estimated_diameter_max" : 51.7654482198
        },
        "miles" : {
          "estimated_diameter_min" : 0.0143848705,
          "estimated_diameter_max" : 0.0321655483
        },
        "feet" : {
          "estimated_diameter_min" : 75.9521422633,
          "estimated_diameter_max" : 169.8341531374
        }
      },
      "is_potentially_hazardous_asteroid" : false,
      "close_approach_data" : [ {
        "close_approach_date" : "2004-02-15",
        "epoch_date_close_approach" : 1076832000000,
        "relative_velocity" : {
          "kilometers_per_second" : "4.4270048048",
          "kilometers_per_hour" : "15937.2172971075",
          "miles_per_hour" : "9902.7670477499"
        },
        "miss_distance" : {
          "astronomical" : "0.1791529302",
          "lunar" : "69.6904907227",
          "kilometers" : "26800898",
          "miles" : "16653306"
        },
        "orbiting_body" : "Earth"
      } ],
      "orbital_data" : {
        "orbit_id" : "11",
        "orbit_determination_date" : "2017-04-06 08:25:10",
        "orbit_uncertainty" : "2",
        "minimum_orbit_intersection" : ".0151469",
        "jupiter_tisserand_invariant" : "5.829",
        "epoch_osculation" : "2458000.5",
        "eccentricity" : ".06998946444985443",
        "semi_major_axis" : "1.053116404918684",
        "inclination" : "8.480602663127476",
        "ascending_node_longitude" : "286.2044695848729",
        "orbital_period" : "394.7416880106416",
        "perihelion_distance" : ".9794093517350694",
        "perihelion_argument" : "78.11940432367183",
        "aphelion_distance" : "1.126823458102299",
        "perihelion_time" : "2458048.167498972514",
        "mean_anomaly" : "316.5277746148709",
        "mean_motion" : ".911988804157657",
        "equinox" : "J2000"
      }
    } ]
  }
}